{
  "norad_id": 62710,
  "name": "FIREFLY-3",
  "history": [
    {
      "epoch": "2026-03-28T19:32:19.483296Z",
      "apogee_km": 593.2952706787528,
      "perigee_km": 584.5067702382257,
      "latitude_deg": 1.9705355693288085e-05,
      "longitude_deg": 48.331453295612626,
      "height_km": 591.0996813591918,
      "semi_major_axis_km": 6967.038020458489,
      "eccentricity": 0.00063072,
      "inclination_deg": 97.7086,
      "raan_deg": 167.6418,
      "arg_perigee_deg": 79.0588,
      "mean_anomaly_deg": 281.1341,
      "mean_motion_rev_day": 14.9289922
    },
    {
      "epoch": "2026-03-29T05:11:25.323648Z",
      "apogee_km": 593.2744422994456,
      "perigee_km": 584.5085270600212,
      "latitude_deg": -8.80753605906688e-06,
      "longitude_deg": -96.44525567254844,
      "height_km": 591.0068016867795,
      "semi_major_axis_km": 6967.028484679733,
      "eccentricity": 0.0006291,
      "inclination_deg": 97.7085,
      "raan_deg": 168.0358,
      "arg_perigee_deg": 77.9171,
      "mean_anomaly_deg": 282.2753,
      "mean_motion_rev_day": 14.92902285
    },
    {
      "epoch": "2026-03-30T03:42:39.002112Z",
      "apogee_km": 593.246489922728,
      "perigee_km": 584.5154230196786,
      "latitude_deg": -6.1345983761745e-05,
      "longitude_deg": -74.25772430760684,
      "height_km": 590.8770852764758,
      "semi_major_axis_km": 6967.017956471203,
      "eccentricity": 0.0006266,
      "inclination_deg": 97.7081,
      "raan_deg": 168.9552,
      "arg_perigee_deg": 76.261,
      "mean_anomaly_deg": 283.9306,
      "mean_motion_rev_day": 14.92905669
    },
    {
      "epoch": "2026-03-30T03:42:39.002976Z",
      "apogee_km": 593.2465595929089,
      "perigee_km": 584.5153533494995,
      "latitude_deg": 3.730266045926005e-05,
      "longitude_deg": -74.25764119671473,
      "height_km": 590.8770483804919,
      "semi_major_axis_km": 6967.017956471203,
      "eccentricity": 0.00062661,
      "inclination_deg": 97.7081,
      "raan_deg": 168.9553,
      "arg_perigee_deg": 76.261,
      "mean_anomaly_deg": 283.9307,
      "mean_motion_rev_day": 14.92905669
    },
    {
      "epoch": "2026-03-30T11:45:13.784832Z",
      "apogee_km": 593.2489948897282,
      "perigee_km": 584.5019107552098,
      "latitude_deg": -4.269475644916213e-05,
      "longitude_deg": 165.09533149344088,
      "height_km": 590.8105958939925,
      "semi_major_axis_km": 6967.012452822469,
      "eccentricity": 0.00062775,
      "inclination_deg": 97.7082,
      "raan_deg": 169.2835,
      "arg_perigee_deg": 75.4627,
      "mean_anomaly_deg": 284.7288,
      "mean_motion_rev_day": 14.92907438
    },
    {
      "epoch": "2026-03-30T21:24:19.477440Z",
      "apogee_km": 593.2395525756501,
      "perigee_km": 584.4987466603379,
      "latitude_deg": 4.51495743136326e-05,
      "longitude_deg": 20.31922457472307,
      "height_km": 590.7291950770068,
      "semi_major_axis_km": 6967.006149617993,
      "eccentricity": 0.0006273,
      "inclination_deg": 97.7081,
      "raan_deg": 169.6775,
      "arg_perigee_deg": 74.4318,
      "mean_anomaly_deg": 285.7594,
      "mean_motion_rev_day": 14.92909464
    },
    {
      "epoch": "2026-03-31T19:55:35.278752Z",
      "apogee_km": 593.2239868788683,
      "perigee_km": 585.1989948870687,
      "latitude_deg": 2.8159918077060276e-05,
      "longitude_deg": 42.498182450679145,
      "height_km": 591.0448526976511,
      "semi_major_axis_km": 6967.348490882968,
      "eccentricity": 0.0005759,
      "inclination_deg": 97.7083,
      "raan_deg": 170.5972,
      "arg_perigee_deg": 72.5876,
      "mean_anomaly_deg": 287.5973,
      "mean_motion_rev_day": 14.92799434
    }
  ]
}